STARLINK-34235          
1 64760U 25147F   25211.91668981 -.01585024  00000+0 -32213-1 0  9999
2 64760  53.1601 196.5935 0001137  93.8666 309.6701 15.48811890  4789
STARLINK-34635          
1 64761U 25147G   25211.58335648  .00014270  00000+0  26438-3 0  9995
2 64761  53.1599 198.1842 0001085  88.9729 256.3872 15.49284929  4750
STARLINK-34638          
1 64762U 25147H   25211.58335648  .00012798  00000+0  23798-3 0  9995
2 64762  53.1599 198.1807 0001086  88.0770 259.2027 15.49284929  4754
STARLINK-34534          
1 64763U 25147J   25211.58335648  .00015132  00000+0  27987-3 0  9995
2 64763  53.1599 198.1762 0001145  87.0608 262.1372 15.49282251  4752
STARLINK-34261          
1 64764U 25147K   25211.58335648  .00017492  00000+0  32211-3 0  9993
2 64764  53.1599 198.1721 0001092  81.2495 269.8546 15.49285684  4793
STARLINK-34566          
1 64765U 25147L   25211.58335648  .00013926  00000+0  25824-3 0  9994
2 64765  53.1599 198.1684 0001208  87.3682 265.6639 15.49282628  4754
STARLINK-34645          
1 64766U 25147M   25211.58335648  .00013371  00000+0  24825-3 0  9999
2 64766  53.1598 198.1642 0001204  85.0617 269.8811 15.49285807  4757
STARLINK-34639          
1 64767U 25147N   25211.58335648  .00018045  00000+0  33202-3 0  9992
2 64767  53.1598 198.1600 0001236  78.0878 278.7678 15.49285275  4702
STARLINK-34609          
1 64768U 25147P   25211.58335648  .00012628  00000+0  23495-3 0  9997
2 64768  53.1599 198.1566 0001165  88.2020 270.5803 15.49284187  4754
STARLINK-34246          
1 64769U 25147Q   25211.91668981 -.01265095  00000+0 -24812-1 0  9997
2 64769  53.1600 196.5579 0000870  82.8218 338.0480 15.49630030  4747
STARLINK-34618          
1 64770U 25147R   25211.58335648 -.01662055  00000+0 -34612-1 0  9999
2 64770  53.1597 198.1501 0000839  81.7822 280.2221 15.48275758  4585
STARLINK-34541          
1 64771U 25147S   25211.58335648  .00015553  00000+0  28739-3 0  9997
2 64771  53.1599 198.1442 0001097  91.1180 273.4105 15.49283779  4635
STARLINK-34652          
1 64772U 25147T   25211.58335648  .00016707  00000+0  30809-3 0  9991
2 64772  53.1599 198.1402 0001140  87.5977 278.8505 15.49281706  4758
STARLINK-34612          
1 64773U 25147U   25211.58335648  .00016734  00000+0  30854-3 0  9992
2 64773  53.1600 198.1361 0001210  88.2449 280.1132 15.49286072  4759
STARLINK-34621          
1 64774U 25147V   25211.58335648  .00014324  00000+0  26536-3 0  9998
2 64774  53.1600 198.1318 0001090  90.1258 280.1568 15.49283295  4643
STARLINK-34657          
1 64775U 25147W   25211.58335648  .00015125  00000+0  27972-3 0  9994
2 64775  53.1599 198.1278 0001115  88.9207 283.2750 15.49284441  4756
STARLINK-34637          
1 64776U 25147X   25211.58335648  .00014370  00000+0  26619-3 0  9993
2 64776  53.1599 198.1237 0001137  89.1356 284.9818 15.49282883  4643
