[{"OBJECT_NAME":"STARLINK-34235","OBJECT_ID":"2025-147F","EPOCH":"2025-07-30T22:00:01.999584","MEAN_MOTION":15.4881189,"ECCENTRICITY":0.0001137,"INCLINATION":53.1601,"RA_OF_ASC_NODE":196.5935,"ARG_OF_PERICENTER":93.8666,"MEAN_ANOMALY":309.6701,"EPHEMERIS_TYPE":0,"CLASSIFICATION_TYPE":"U","NORAD_CAT_ID":64760,"ELEMENT_SET_NO":999,"REV_AT_EPOCH":478,"BSTAR":-0.032213,"MEAN_MOTION_DOT":-0.01585024,"MEAN_MOTION_DDOT":0},{"OBJECT_NAME":"STARLINK-34635","OBJECT_ID":"2025-147G","EPOCH":"2025-07-30T14:00:01.999872","MEAN_MOTION":15.49284929,"ECCENTRICITY":0.0001085,"INCLINATION":53.1599,"RA_OF_ASC_NODE":198.1842,"ARG_OF_PERICENTER":88.9729,"MEAN_ANOMALY":256.3872,"EPHEMERIS_TYPE":0,"CLASSIFICATION_TYPE":"U","NORAD_CAT_ID":64761,"ELEMENT_SET_NO":999,"REV_AT_EPOCH":475,"BSTAR":0.00026438,"MEAN_MOTION_DOT":0.0001427,"MEAN_MOTION_DDOT":0},{"OBJECT_NAME":"STARLINK-34638","OBJECT_ID":"2025-147H","EPOCH":"2025-07-30T14:00:01.999872","MEAN_MOTION":15.49284929,"ECCENTRICITY":0.0001086,"INCLINATION":53.1599,"RA_OF_ASC_NODE":198.1807,"ARG_OF_PERICENTER":88.077,"MEAN_ANOMALY":259.2027,"EPHEMERIS_TYPE":0,"CLASSIFICATION_TYPE":"U","NORAD_CAT_ID":64762,"ELEMENT_SET_NO":999,"REV_AT_EPOCH":475,"BSTAR":0.00023798,"MEAN_MOTION_DOT":0.00012798,"MEAN_MOTION_DDOT":0},{"OBJECT_NAME":"STARLINK-34534","OBJECT_ID":"2025-147J","EPOCH":"2025-07-30T14:00:01.999872","MEAN_MOTION":15.49282251,"ECCENTRICITY":0.0001145,"INCLINATION":53.1599,"RA_OF_ASC_NODE":198.1762,"ARG_OF_PERICENTER":87.0608,"MEAN_ANOMALY":262.1372,"EPHEMERIS_TYPE":0,"CLASSIFICATION_TYPE":"U","NORAD_CAT_ID":64763,"ELEMENT_SET_NO":999,"REV_AT_EPOCH":475,"BSTAR":0.00027987,"MEAN_MOTION_DOT":0.00015132,"MEAN_MOTION_DDOT":0},{"OBJECT_NAME":"STARLINK-34261","OBJECT_ID":"2025-147K","EPOCH":"2025-07-30T14:00:01.999872","MEAN_MOTION":15.49285684,"ECCENTRICITY":0.0001092,"INCLINATION":53.1599,"RA_OF_ASC_NODE":198.1721,"ARG_OF_PERICENTER":81.2495,"MEAN_ANOMALY":269.8546,"EPHEMERIS_TYPE":0,"CLASSIFICATION_TYPE":"U","NORAD_CAT_ID":64764,"ELEMENT_SET_NO":999,"REV_AT_EPOCH":479,"BSTAR":0.00032211,"MEAN_MOTION_DOT":0.00017492,"MEAN_MOTION_DDOT":0},{"OBJECT_NAME":"STARLINK-34566","OBJECT_ID":"2025-147L","EPOCH":"2025-07-30T14:00:01.999872","MEAN_MOTION":15.49282628,"ECCENTRICITY":0.0001208,"INCLINATION":53.1599,"RA_OF_ASC_NODE":198.1684,"ARG_OF_PERICENTER":87.3682,"MEAN_ANOMALY":265.6639,"EPHEMERIS_TYPE":0,"CLASSIFICATION_TYPE":"U","NORAD_CAT_ID":64765,"ELEMENT_SET_NO":999,"REV_AT_EPOCH":475,"BSTAR":0.00025824,"MEAN_MOTION_DOT":0.00013926,"MEAN_MOTION_DDOT":0},{"OBJECT_NAME":"STARLINK-34645","OBJECT_ID":"2025-147M","EPOCH":"2025-07-30T14:00:01.999872","MEAN_MOTION":15.49285807,"ECCENTRICITY":0.0001204,"INCLINATION":53.1598,"RA_OF_ASC_NODE":198.1642,"ARG_OF_PERICENTER":85.0617,"MEAN_ANOMALY":269.8811,"EPHEMERIS_TYPE":0,"CLASSIFICATION_TYPE":"U","NORAD_CAT_ID":64766,"ELEMENT_SET_NO":999,"REV_AT_EPOCH":475,"BSTAR":0.00024825,"MEAN_MOTION_DOT":0.00013371,"MEAN_MOTION_DDOT":0},{"OBJECT_NAME":"STARLINK-34639","OBJECT_ID":"2025-147N","EPOCH":"2025-07-30T14:00:01.999872","MEAN_MOTION":15.49285275,"ECCENTRICITY":0.0001236,"INCLINATION":53.1598,"RA_OF_ASC_NODE":198.16,"ARG_OF_PERICENTER":78.0878,"MEAN_ANOMALY":278.7678,"EPHEMERIS_TYPE":0,"CLASSIFICATION_TYPE":"U","NORAD_CAT_ID":64767,"ELEMENT_SET_NO":999,"REV_AT_EPOCH":470,"BSTAR":0.00033202,"MEAN_MOTION_DOT":0.00018045,"MEAN_MOTION_DDOT":0},{"OBJECT_NAME":"STARLINK-34609","OBJECT_ID":"2025-147P","EPOCH":"2025-07-30T14:00:01.999872","MEAN_MOTION":15.49284187,"ECCENTRICITY":0.0001165,"INCLINATION":53.1599,"RA_OF_ASC_NODE":198.1566,"ARG_OF_PERICENTER":88.202,"MEAN_ANOMALY":270.5803,"EPHEMERIS_TYPE":0,"CLASSIFICATION_TYPE":"U","NORAD_CAT_ID":64768,"ELEMENT_SET_NO":999,"REV_AT_EPOCH":475,"BSTAR":0.00023495,"MEAN_MOTION_DOT":0.00012628,"MEAN_MOTION_DDOT":0},{"OBJECT_NAME":"STARLINK-34246","OBJECT_ID":"2025-147Q","EPOCH":"2025-07-30T22:00:01.999584","MEAN_MOTION":15.4963003,"ECCENTRICITY":8.7e-5,"INCLINATION":53.16,"RA_OF_ASC_NODE":196.5579,"ARG_OF_PERICENTER":82.8218,"MEAN_ANOMALY":338.048,"EPHEMERIS_TYPE":0,"CLASSIFICATION_TYPE":"U","NORAD_CAT_ID":64769,"ELEMENT_SET_NO":999,"REV_AT_EPOCH":474,"BSTAR":-0.024812,"MEAN_MOTION_DOT":-0.01265095,"MEAN_MOTION_DDOT":0},{"OBJECT_NAME":"STARLINK-34618","OBJECT_ID":"2025-147R","EPOCH":"2025-07-30T14:00:01.999872","MEAN_MOTION":15.48275758,"ECCENTRICITY":8.39e-5,"INCLINATION":53.1597,"RA_OF_ASC_NODE":198.1501,"ARG_OF_PERICENTER":81.7822,"MEAN_ANOMALY":280.2221,"EPHEMERIS_TYPE":0,"CLASSIFICATION_TYPE":"U","NORAD_CAT_ID":64770,"ELEMENT_SET_NO":999,"REV_AT_EPOCH":458,"BSTAR":-0.034612,"MEAN_MOTION_DOT":-0.01662055,"MEAN_MOTION_DDOT":0},{"OBJECT_NAME":"STARLINK-34541","OBJECT_ID":"2025-147S","EPOCH":"2025-07-30T14:00:01.999872","MEAN_MOTION":15.49283779,"ECCENTRICITY":0.0001097,"INCLINATION":53.1599,"RA_OF_ASC_NODE":198.1442,"ARG_OF_PERICENTER":91.118,"MEAN_ANOMALY":273.4105,"EPHEMERIS_TYPE":0,"CLASSIFICATION_TYPE":"U","NORAD_CAT_ID":64771,"ELEMENT_SET_NO":999,"REV_AT_EPOCH":463,"BSTAR":0.00028739,"MEAN_MOTION_DOT":0.00015553,"MEAN_MOTION_DDOT":0},{"OBJECT_NAME":"STARLINK-34652","OBJECT_ID":"2025-147T","EPOCH":"2025-07-30T14:00:01.999872","MEAN_MOTION":15.49281706,"ECCENTRICITY":0.000114,"INCLINATION":53.1599,"RA_OF_ASC_NODE":198.1402,"ARG_OF_PERICENTER":87.5977,"MEAN_ANOMALY":278.8505,"EPHEMERIS_TYPE":0,"CLASSIFICATION_TYPE":"U","NORAD_CAT_ID":64772,"ELEMENT_SET_NO":999,"REV_AT_EPOCH":475,"BSTAR":0.00030809,"MEAN_MOTION_DOT":0.00016707,"MEAN_MOTION_DDOT":0},{"OBJECT_NAME":"STARLINK-34612","OBJECT_ID":"2025-147U","EPOCH":"2025-07-30T14:00:01.999872","MEAN_MOTION":15.49286072,"ECCENTRICITY":0.000121,"INCLINATION":53.16,"RA_OF_ASC_NODE":198.1361,"ARG_OF_PERICENTER":88.2449,"MEAN_ANOMALY":280.1132,"EPHEMERIS_TYPE":0,"CLASSIFICATION_TYPE":"U","NORAD_CAT_ID":64773,"ELEMENT_SET_NO":999,"REV_AT_EPOCH":475,"BSTAR":0.00030854,"MEAN_MOTION_DOT":0.00016734,"MEAN_MOTION_DDOT":0},{"OBJECT_NAME":"STARLINK-34621","OBJECT_ID":"2025-147V","EPOCH":"2025-07-30T14:00:01.999872","MEAN_MOTION":15.49283295,"ECCENTRICITY":0.000109,"INCLINATION":53.16,"RA_OF_ASC_NODE":198.1318,"ARG_OF_PERICENTER":90.1258,"MEAN_ANOMALY":280.1568,"EPHEMERIS_TYPE":0,"CLASSIFICATION_TYPE":"U","NORAD_CAT_ID":64774,"ELEMENT_SET_NO":999,"REV_AT_EPOCH":464,"BSTAR":0.00026536,"MEAN_MOTION_DOT":0.00014324,"MEAN_MOTION_DDOT":0},{"OBJECT_NAME":"STARLINK-34657","OBJECT_ID":"2025-147W","EPOCH":"2025-07-30T14:00:01.999872","MEAN_MOTION":15.49284441,"ECCENTRICITY":0.0001115,"INCLINATION":53.1599,"RA_OF_ASC_NODE":198.1278,"ARG_OF_PERICENTER":88.9207,"MEAN_ANOMALY":283.275,"EPHEMERIS_TYPE":0,"CLASSIFICATION_TYPE":"U","NORAD_CAT_ID":64775,"ELEMENT_SET_NO":999,"REV_AT_EPOCH":475,"BSTAR":0.00027972,"MEAN_MOTION_DOT":0.00015125,"MEAN_MOTION_DDOT":0},{"OBJECT_NAME":"STARLINK-34637","OBJECT_ID":"2025-147X","EPOCH":"2025-07-30T14:00:01.999872","MEAN_MOTION":15.49282883,"ECCENTRICITY":0.0001137,"INCLINATION":53.1599,"RA_OF_ASC_NODE":198.1237,"ARG_OF_PERICENTER":89.1356,"MEAN_ANOMALY":284.9818,"EPHEMERIS_TYPE":0,"CLASSIFICATION_TYPE":"U","NORAD_CAT_ID":64776,"ELEMENT_SET_NO":999,"REV_AT_EPOCH":464,"BSTAR":0.00026619,"MEAN_MOTION_DOT":0.0001437,"MEAN_MOTION_DDOT":0}]
